{
  "type": "FeatureCollection",
  "features": [
    {
      "type": "Feature",
      "properties": {
        "norad_id": 65731,
        "name": "1998-067XK",
        "group": "stations",
        "lat": -45.98832007868186,
        "lon": -39.71614115852751,
        "alt_km": 368.52045594045467,
        "timestamp": "2025-12-22T23:36:19.444962+00:00",
        "meta_object_name": "1998-067XK",
        "meta_object_id": "1998-067XK",
        "meta_epoch": "2025-12-22T11:50:52.395936",
        "meta_mean_motion": 15.67550975,
        "meta_eccentricity": 0.00048767,
        "meta_inclination": 51.6296,
        "meta_ra_of_asc_node": 87.6784,
        "meta_arg_of_pericenter": 307.2802,
        "meta_mean_anomaly": 52.7749,
        "meta_ephemeris_type": 0,
        "meta_classification_type": "U",
        "meta_norad_cat_id": 65731,
        "meta_element_set_no": 999,
        "meta_rev_at_epoch": 1467,
        "meta_bstar": 0.00098825287,
        "meta_mean_motion_dot": 0.00110692,
        "meta_mean_motion_ddot": 0,
        "tle_line1": "1 65731U 98067XK  25356.49366199  .00110692  00000+0  98825-3 0  9993",
        "tle_line2": "2 65731  51.6296  87.6784 0004876 307.2802  52.7749 15.67550975 14672"
      },
      "geometry": {
        "type": "Point",
        "coordinates": [
          -39.71614115852751,
          -45.98832007868186
        ]
      }
    },
    {
      "type": "Feature",
      "properties": {
        "norad_id": 65732,
        "name": "RSP-03",
        "group": "stations",
        "lat": -17.73151110621873,
        "lon": 69.5549989007994,
        "alt_km": 354.59629256123117,
        "timestamp": "2025-12-22T23:36:19.444972+00:00",
        "meta_object_name": "RSP-03",
        "meta_object_id": "1998-067XL",
        "meta_epoch": "2025-12-22T13:00:59.275008",
        "meta_mean_motion": 15.71055335,
        "meta_eccentricity": 0.00058331,
        "meta_inclination": 51.6262,
        "meta_ra_of_asc_node": 86.4899,
        "meta_arg_of_pericenter": 314.1528,
        "meta_mean_anomaly": 45.8989,
        "meta_ephemeris_type": 0,
        "meta_classification_type": "U",
        "meta_norad_cat_id": 65732,
        "meta_element_set_no": 999,
        "meta_rev_at_epoch": 1470,
        "meta_bstar": 0.0011094477,
        "meta_mean_motion_dot": 0.00144397,
        "meta_mean_motion_ddot": 0,
        "tle_line1": "1 65732U 98067XL  25356.54235272  .00144397  00000+0  11094-2 0  9998",
        "tle_line2": "2 65732  51.6262  86.4899 0005833 314.1528  45.8989 15.71055335 14704"
      },
      "geometry": {
        "type": "Point",
        "coordinates": [
          69.5549989007994,
          -17.73151110621873
        ]
      }
    },
    {
      "type": "Feature",
      "properties": {
        "norad_id": 65733,
        "name": "GHS-01",
        "group": "stations",
        "lat": 16.53669307235752,
        "lon": -111.25848678471225,
        "alt_km": 336.55482102465885,
        "timestamp": "2025-12-22T23:36:19.444984+00:00",
        "meta_object_name": "GHS-01",
        "meta_object_id": "1998-067XM",
        "meta_epoch": "2025-12-22T12:18:19.985184",
        "meta_mean_motion": 15.79083462,
        "meta_eccentricity": 0.00088517,
        "meta_inclination": 51.6292,
        "meta_ra_of_asc_node": 84.7862,
        "meta_arg_of_pericenter": 340.8891,
        "meta_mean_anomaly": 19.1777,
        "meta_ephemeris_type": 0,
        "meta_classification_type": "U",
        "meta_norad_cat_id": 65733,
        "meta_element_set_no": 999,
        "meta_rev_at_epoch": 1472,
        "meta_bstar": 0.0014795008,
        "meta_mean_motion_dot": 0.00278334,
        "meta_mean_motion_ddot": 0,
        "tle_line1": "1 65733U 98067XM  25356.51273131  .00278334  00000+0  14795-2 0  9992",
        "tle_line2": "2 65733  51.6292  84.7862 0008851 340.8891  19.1777 15.79083462 14722"
      },
      "geometry": {
        "type": "Point",
        "coordinates": [
          -111.25848678471225,
          16.53669307235752
        ]
      }
    },
    {
      "type": "Feature",
      "properties": {
        "norad_id": 65941,
        "name": "YOTSUBA-KULOVER",
        "group": "stations",
        "lat": 40.03403553742225,
        "lon": -133.29243419342345,
        "alt_km": 381.10952614689177,
        "timestamp": "2025-12-22T23:36:19.444995+00:00",
        "meta_object_name": "YOTSUBA-KULOVER",
        "meta_object_id": "1998-067XN",
        "meta_epoch": "2025-12-22T12:18:58.548960",
        "meta_mean_motion": 15.60714996,
        "meta_eccentricity": 0.00021092,
        "meta_inclination": 51.6295,
        "meta_ra_of_asc_node": 90.8089,
        "meta_arg_of_pericenter": 341.8055,
        "meta_mean_anomaly": 18.2862,
        "meta_ephemeris_type": 0,
        "meta_classification_type": "U",
        "meta_norad_cat_id": 65941,
        "meta_element_set_no": 999,
        "meta_rev_at_epoch": 1138,
        "meta_bstar": 0.00080270144,
        "meta_mean_motion_dot": 0.00068061,
        "meta_mean_motion_ddot": 0,
        "tle_line1": "1 65941U 98067XN  25356.51317765  .00068061  00000+0  80270-3 0  9991",
        "tle_line2": "2 65941  51.6295  90.8089 0002109 341.8055  18.2862 15.60714996 11385"
      },
      "geometry": {
        "type": "Point",
        "coordinates": [
          -133.29243419342345,
          40.03403553742225
        ]
      }
    },
    {
      "type": "Feature",
      "properties": {
        "norad_id": 65942,
        "name": "BOTAN",
        "group": "stations",
        "lat": -39.2546046259339,
        "lon": -52.1869459657054,
        "alt_km": 377.3941610527463,
        "timestamp": "2025-12-22T23:36:19.445005+00:00",
        "meta_object_name": "BOTAN",
        "meta_object_id": "1998-067XP",
        "meta_epoch": "2025-12-22T07:17:02.509728",
        "meta_mean_motion": 15.64805517,
        "meta_eccentricity": 0.00031122,
        "meta_inclination": 51.6283,
        "meta_ra_of_asc_node": 90.9078,
        "meta_arg_of_pericenter": 318.7343,
        "meta_mean_anomaly": 41.3416,
        "meta_ephemeris_type": 0,
        "meta_classification_type": "U",
        "meta_norad_cat_id": 65942,
        "meta_element_set_no": 999,
        "meta_rev_at_epoch": 1136,
        "meta_bstar": 0.0012003898,
        "meta_mean_motion_dot": 0.0012058,
        "meta_mean_motion_ddot": 0,
        "tle_line1": "1 65942U 98067XP  25356.30350127  .00120580  00000+0  12004-2 0  9992",
        "tle_line2": "2 65942  51.6283  90.9078 0003112 318.7343  41.3416 15.64805517 11364"
      },
      "geometry": {
        "type": "Point",
        "coordinates": [
          -52.1869459657054,
          -39.2546046259339
        ]
      }
    },
    {
      "type": "Feature",
      "properties": {
        "norad_id": 65943,
        "name": "E-KAGAKU-1",
        "group": "stations",
        "lat": 40.39144489219033,
        "lon": -133.93430053290885,
        "alt_km": 380.7814770990135,
        "timestamp": "2025-12-22T23:36:19.445030+00:00",
        "meta_object_name": "E-KAGAKU-1",
        "meta_object_id": "1998-067XQ",
        "meta_epoch": "2025-12-22T10:46:55.533504",
        "meta_mean_motion": 15.60710313,
        "meta_eccentricity": 0.00012968,
        "meta_inclination": 51.6319,
        "meta_ra_of_asc_node": 91.1385,
        "meta_arg_of_pericenter": 295.9007,
        "meta_mean_anomaly": 64.1852,
        "meta_ephemeris_type": 0,
        "meta_classification_type": "U",
        "meta_norad_cat_id": 65943,
        "meta_element_set_no": 999,
        "meta_rev_at_epoch": 1137,
        "meta_bstar": 0.00086344374,
        "meta_mean_motion_dot": 0.00073283,
        "meta_mean_motion_ddot": 0,
        "tle_line1": "1 65943U 98067XQ  25356.44925386  .00073283  00000+0  86344-3 0  9999",
        "tle_line2": "2 65943  51.6319  91.1385 0001296 295.9007  64.1852 15.60710313 11376"
      },
      "geometry": {
        "type": "Point",
        "coordinates": [
          -133.93430053290885,
          40.39144489219033
        ]
      }
    },
    {
      "type": "Feature",
      "properties": {
        "norad_id": 66052,
        "name": "HRC MONOBLOCK CAMERA",
        "group": "stations",
        "lat": -50.56226044211922,
        "lon": -15.179999176498374,
        "alt_km": 405.9085630467898,
        "timestamp": "2025-12-22T23:36:19.445043+00:00",
        "meta_object_name": "HRC MONOBLOCK CAMERA",
        "meta_object_id": "1998-067XR",
        "meta_epoch": "2025-12-21T17:10:53.034240",
        "meta_mean_motion": 15.54728821,
        "meta_eccentricity": 0.00023026,
        "meta_inclination": 51.6309,
        "meta_ra_of_asc_node": 96.7319,
        "meta_arg_of_pericenter": 227.1692,
        "meta_mean_anomaly": 132.9105,
        "meta_ephemeris_type": 0,
        "meta_classification_type": "U",
        "meta_norad_cat_id": 66052,
        "meta_element_set_no": 999,
        "meta_rev_at_epoch": 1023,
        "meta_bstar": 0.00048538169,
        "meta_mean_motion_dot": 0.00032497,
        "meta_mean_motion_ddot": 0,
        "tle_line1": "1 66052U 98067XR  25355.71589160  .00032497  00000+0  48538-3 0  9991",
        "tle_line2": "2 66052  51.6309  96.7319 0002302 227.1692 132.9105 15.54728821 10236"
      },
      "geometry": {
        "type": "Point",
        "coordinates": [
          -15.179999176498374,
          -50.56226044211922
        ]
      }
    }
  ]
}